ONEWEB-0492             
1 54114U 22138B   25343.69368797  .00000035  00000+0  56260-4 0  9993
2 54114  87.9199 342.6765 0001823  81.5078 278.6261 13.19725305151843
ONEWEB-0495             
1 54115U 22138C   25343.74738517  .00000056  00000+0  10678-3 0  9996
2 54115  87.9194 342.6694 0002397  80.1327 280.0076 13.19723914151833
ONEWEB-0497             
1 54116U 22138D   25343.76002760  .00000061  00000+0  11922-3 0  9992
2 54116  87.9199 342.6532 0001853  86.6140 273.5205 13.19724131151822
ONEWEB-0499             
1 54117U 22138E   25343.74345266  .00000004  00000+0 -22111-4 0  9993
2 54117  87.9197 342.6696 0001988  91.0856 269.0505 13.19725474151830
ONEWEB-0500             
1 54118U 22138F   25343.44254732  .00000059  00000+0  11569-3 0  9991
2 54118  87.9200 342.7169 0001717  87.4252 272.7078 13.19723943151803
ONEWEB-0501             
1 54119U 22138G   25343.70001455  .00000134  00000+0  30255-3 0  9990
2 54119  87.9209 342.6638 0002124  84.7273 275.4102 13.19724971151810
ONEWEB-0502             
1 54120U 22138H   25343.76161192  .00000044  00000+0  76957-4 0  9993
2 54120  87.9207 342.6331 0002067  89.0966 271.0404 13.19724728151843
ONEWEB-0503             
1 54121U 22138J   25343.75055039  .00000087  00000+0  18477-3 0  9994
2 54121  87.9205 342.6394 0001870  97.3738 262.7607 13.19724398151835
